2023-104A               
1 57424U 23104A   26065.78279804  .00015492  00000+0  48200-3 0  9993
2 57424  97.2792 135.5625 0009333 122.1915 238.0234 15.33350758146346
STARLINK-34311          
1 64206U 25117D   26068.24299080  .00033166  00000+0  11270-2 0  9991
2 64206  53.1622  41.9398 0001292  81.7614 278.3534 15.30197645 44487
